ONEWEB-0549             
1 56051U 23043F   24324.47794927 -.00000059  00000+0 -17464-3 0  9993
2 56051  87.9315 358.4692 0001612  82.9391 277.1927 13.21827562 82306
ONEWEB-0550             
1 56052U 23043G   24324.16255643 -.00000016  00000+0 -70842-4 0  9990
2 56052  87.9312 358.5340 0002034  96.1465 263.9901 13.21821555 82269
ONEWEB-0551             
1 56053U 23043H   24324.38999985 -.00000301  00000+0 -83239-3 0  9999
2 56053  87.9099  13.6614 0001825  90.7119 269.4220 13.15548031 80821
ONEWEB-0552             
1 56054U 23043J   24324.53473169  .00002012  00000+0  48399-2 0  9994
2 56054  87.9313 358.4695 0002247  88.3709 271.7682 13.21812971 82315
ONEWEB-0553             
1 56055U 23043K   24324.49290833 -.00000226  00000+0 -62353-3 0  9999
2 56055  87.9089 343.2722 0001586 102.1028 258.0280 13.16594908 83351
ONEWEB-0554             
1 56056U 23043L   24324.48025417  .00000028  00000+0  40615-4 0  9999
2 56056  87.9090 343.2999 0002515  91.9927 268.1492 13.16595735 83330
ONEWEB-0555             
1 56057U 23043M   24324.44224601 -.00000317  00000+0 -86187-3 0  9998
2 56057  87.9090 343.2761 0001924 115.5213 244.6117 13.16594133 83336
ONEWEB-0557             
1 56058U 23043N   24324.45650164 -.00000068  00000+0 -21025-3 0  9990
2 56058  87.9090 343.2978 0002416 115.9030 244.2350 13.16596445 83338
